{
    "links": {
        "self": "http://www.neowsapp.com/rest/v1/neo/3388076?api_key=iIulBulltgU6a56xZRHN4H3l9WmuAYTsLGpBGhQ2"
    },
    "id": "3388076",
    "neo_reference_id": "3388076",
    "name": "(2007 TX22)",
    "designation": "2007 TX22",
    "nasa_jpl_url": "http://ssd.jpl.nasa.gov/sbdb.cgi?sstr=3388076",
    "absolute_magnitude_h": 28.4,
    "estimated_diameter": {
        "kilometers": {
            "estimated_diameter_min": 0.0055533491,
            "estimated_diameter_max": 0.0124176661
        },
        "meters": {
            "estimated_diameter_min": 5.5533491158,
            "estimated_diameter_max": 12.4176661257
        },
        "miles": {
            "estimated_diameter_min": 0.0034506901,
            "estimated_diameter_max": 0.0077159776
        },
        "feet": {
            "estimated_diameter_min": 18.2196499131,
            "estimated_diameter_max": 40.740375732
        }
    },
    "is_potentially_hazardous_asteroid": false,
    "close_approach_data": [
        {
            "close_approach_date": "2007-10-12",
            "close_approach_date_full": "2007-Oct-12 10:30",
            "epoch_date_close_approach": 1192185000000,
            "relative_velocity": {
                "kilometers_per_second": "9.2493255598",
                "kilometers_per_hour": "33297.5720154308",
                "miles_per_hour": "20689.8163448103"
            },
            "miss_distance": {
                "astronomical": "0.0009694099",
                "lunar": "0.3771004511",
                "kilometers": "145021.656196913",
                "miles": "90112.2785988794"
            },
            "orbiting_body": "Earth"
        },
        {
            "close_approach_date": "2007-10-12",
            "close_approach_date_full": "2007-Oct-12 18:35",
            "epoch_date_close_approach": 1192214100000,
            "relative_velocity": {
                "kilometers_per_second": "9.7749723439",
                "kilometers_per_hour": "35189.900437883",
                "miles_per_hour": "21865.6356359723"
            },
            "miss_distance": {
                "astronomical": "0.0022693024",
                "lunar": "0.8827586336",
                "kilometers": "339482.805425888",
                "miles": "210944.8336497344"
            },
            "orbiting_body": "Moon"
        }
    ],
    "orbital_data": {
        "orbit_id": "7",
        "orbit_determination_date": "2017-04-06 09:05:46",
        "first_observation_date": "2007-10-11",
        "last_observation_date": "2007-10-11",
        "data_arc_in_days": null,
        "observations_used": 22,
        "orbit_uncertainty": "9",
        "minimum_orbit_intersection": ".000888539",
        "jupiter_tisserand_invariant": "4.263",
        "epoch_osculation": "2454384.5",
        "eccentricity": ".4354645778533293",
        "semi_major_axis": "1.592566609378426",
        "inclination": "1.773018536631828",
        "ascending_node_longitude": "20.33708254236929",
        "orbital_period": "734.0824403147949",
        "perihelion_distance": ".8990602631221419",
        "perihelion_argument": "46.03524027685987",
        "aphelion_distance": "2.286072955634711",
        "perihelion_time": "2454422.968316271337",
        "mean_anomaly": "341.1348247865149",
        "mean_motion": ".4904081343311005",
        "equinox": "J2000",
        "orbit_class": {
            "orbit_class_type": "APO",
            "orbit_class_description": "Near-Earth asteroid orbits which cross the Earth’s orbit similar to that of 1862 Apollo",
            "orbit_class_range": "a (semi-major axis) > 1.0 AU; q (perihelion) < 1.017 AU"
        }
    },
    "is_sentry_object": false
}